NORAD_CAT_ID,OBJECT_NAME,OBJECT_TYPE,EPOCH,MEAN_MOTION,ECCENTRICITY,INCLINATION,RA_OF_ASC_NODE,ARG_OF_PERICENTER,MEAN_ANOMALY,BSTAR,MEAN_MOTION_DOT,MEAN_MOTION_DDOT,TLE_LINE0,TLE_LINE1,TLE_LINE2,SEMIMAJOR_AXIS,PERIOD,APOGEE,PERIGEE,DECAYED
49179.0,STARLINK-3043,PAYLOAD,2021-11-11 14:00:01,15.69798803,0.0003833,69.9994,322.4693,292.2741,282.9427,-0.00104,-0.00122831,0.0,0 STARLINK-3043,1 49179U 21082BB  21315.58334491 -.00122831  00000-0 -10400-2 0  9998,2 49179  69.9994 322.4693 0003833 292.2741 282.9427 15.69798803  3688,6737.61,91.732,362.057,356.892,0.0
49179.0,STARLINK-3043,PAYLOAD,2021-11-11 22:00:00,15.69678145,0.0003827,69.9994,321.5325,286.4876,11.8667,0.00074472,0.00089386,0.0,0 STARLINK-3043,1 49179U 21082BB  21315.91667824  .00089386  00000-0  74472-3 0  9999,2 49179  69.9994 321.5325 0003827 286.4876  11.8667 15.69678145  9336,6737.955,91.739,362.399,357.241,0.0
49179.0,STARLINK-3043,PAYLOAD,2021-11-12 14:00:01,15.69757162,0.0003957,69.9989,319.6585,292.0659,172.4746,-0.00021911,-0.00026299,0.0,0 STARLINK-3043,1 49179U 21082BB  21316.58334491 -.00026299  00000-0 -21911-3 0  9990,2 49179  69.9989 319.6585 0003957 292.0659 172.4746 15.69757162  9432,6737.729,91.734,362.26,356.92800000000005,0.0
49179.0,STARLINK-3043,PAYLOAD,2021-11-12 22:00:00,15.69719125,0.0003845,69.9988,318.7208,285.7976,261.8734,0.00063621,0.00076342,0.0,0 STARLINK-3043,1 49179U 21082BB  21316.91667824  .00076342  00000-0  63621-3 0  9992,2 49179  69.9988 318.7208 0003845 285.7976 261.8734 15.69719125  3734,6737.8380000000025,91.736,362.293,357.112,0.0
49179.0,STARLINK-3043,PAYLOAD,2021-11-13 06:00:00,15.69771233,0.0003896,69.9992,317.7844,289.4575,341.3546,-5.1417e-05,-6.352e-05,0.0,0 STARLINK-3043,1 49179U 21082BB  21317.25001157 -.00006352  00000-0 -51417-4 0  9998,2 49179  69.9992 317.7844 0003896 289.4575 341.3546 15.69771233  9544,6737.689,91.733,362.179,356.92900000000014,0.0
49179.0,STARLINK-3043,PAYLOAD,2021-11-13 14:00:01,15.69748811,0.0003741,69.9998,316.841,283.6517,70.1239,-2.1764e-05,-2.81e-05,0.0,0 STARLINK-3043,1 49179U 21082BB  21317.58334491 -.00002810  00000-0 -21764-4 0  9991,2 49179  69.9998 316.8410 0003741 283.6517  70.1239 15.69748811  9597,6737.753000000002,91.734,362.138,357.097,0.0
49179.0,STARLINK-3043,PAYLOAD,2021-11-13 22:00:00,15.69704953,0.0003505,69.999,315.9106,286.8554,150.2709,0.00064676,0.00077572,0.0,0 STARLINK-3043,1 49179U 21082BB  21317.91667824  .00077572  00000-0  64676-3 0  9990,2 49179  69.9990 315.9106 0003505 286.8554 150.2709 15.69704953  9642,6737.878000000002,91.737,362.105,357.38199999999995,0.0
49179.0,STARLINK-3043,PAYLOAD,2021-11-14 06:00:00,15.69743527,0.0003656,69.9987,314.9737,290.9461,229.2899,3.37e-05,3.812e-05,0.0,0 STARLINK-3043,1 49179U 21082BB  21318.25001157  .00003812  00000-0  33700-4 0  9990,2 49179  69.9987 314.9737 0003656 290.9461 229.2899 15.69743527  9699,6737.768,91.735,362.096,357.1690000000001,0.0
49179.0,STARLINK-3043,PAYLOAD,2021-11-14 14:00:01,15.69779457,0.0003653,69.9982,314.0364,292.1895,311.1646,-0.00032015,-0.00038307,0.0,0 STARLINK-3043,1 49179U 21082BB  21318.58334491 -.00038307  00000-0 -32015-3 0  9992,2 49179  69.9982 314.0364 0003653 292.1895 311.1646 15.69779457  3677,6737.665,91.733,361.991,357.069,0.0
49179.0,STARLINK-3043,PAYLOAD,2021-11-14 22:00:00,15.69766823,0.0003492,69.9983,313.0993,286.5552,39.9454,-9.6892e-05,-0.00011771,0.0,0 STARLINK-3043,1 49179U 21082BB  21318.91667824 -.00011771  00000-0 -96892-4 0  9998,2 49179  69.9983 313.0993 0003492 286.5552  39.9454 15.69766823  3667,6737.701,91.733,361.919,357.213,0.0
49179.0,STARLINK-3043,PAYLOAD,2021-11-15 14:00:01,15.69753356,0.0003345,69.9983,311.225,293.7990000000001,198.9428,-0.00038256,-0.00045641,0.0,0 STARLINK-3043,1 49179U 21082BB  21319.58334491 -.00045641  00000-0 -38256-3 0  9995,2 49179  69.9983 311.2250 0003345 293.7990 198.9428 15.69753356  9903,6737.74,91.734,361.858,357.351,0.0
49179.0,STARLINK-3043,PAYLOAD,2021-11-15 20:00:01,15.69696955,0.000326,69.9984,310.5225,288.0043,177.0909,0.00079779,0.00095911,0.0,0 STARLINK-3043,1 49179U 21082BB  21319.83334491  .00095911  00000-0  79779-3 0  9991,2 49179  69.9984 310.5225 0003260 288.0043 177.0909 15.69696955  9947,6737.901,91.737,361.963,357.57,0.0
49179.0,STARLINK-3043,PAYLOAD,2021-11-16 06:00:00,15.69747444,0.0003377,69.9982,309.3512,292.6413,6.3456,8.1841e-05,9.568e-05,0.0,0 STARLINK-3043,1 49179U 21082BB  21320.25001157  .00009568  00000-0  81841-4 0  9996,2 49179  69.9982 309.3512 0003377 292.6413   6.3456 15.69747444 10012,6737.757,91.735,361.897,357.346,0.0
49179.0,STARLINK-3043,PAYLOAD,2021-11-16 14:00:01,15.69817315,0.0003486,69.9978,308.414,292.5212,89.6023,-0.00082296,-0.00097598,0.0,0 STARLINK-3043,1 49179U 21082BB  21320.58334491 -.00097598  00000-0 -82296-3 0  9998,2 49179  69.9978 308.4140 0003486 292.5212  89.6023 15.69817315  3685,6737.557,91.73,361.77,357.0730000000001,0.0
49179.0,STARLINK-3043,PAYLOAD,2021-11-16 22:00:00,15.69726849,0.000348,69.998,307.4768,285.3685,179.9267,0.00035164,0.00041937,0.0,0 STARLINK-3043,1 49179U 21082BB  21320.91667824  .00041937  00000-0  35164-3 0  9990,2 49179  69.9980 307.4768 0003480 285.3685 179.9267 15.69726849  3708,6737.816,91.736,362.025,357.336,0.0
49179.0,STARLINK-3043,PAYLOAD,2021-11-17 06:00:02,15.69736342,0.0003666,69.9981,306.5395,290.2252,258.2603,0.00026488,0.00031512,0.0,0 STARLINK-3043,1 49179U 21082BB  21321.25002315  .00031512  00000-0  26488-3 0  9993,2 49179  69.9981 306.5395 0003666 290.2252 258.2603 15.69736342 10168,6737.788000000001,91.735,362.12300000000016,357.18300000000005,0.0
49179.0,STARLINK-3043,PAYLOAD,2021-11-17 10:00:00,15.69759739,0.000373,69.9981,306.0708,292.2162,117.7603,-0.00012352,-0.00014939,0.0,0 STARLINK-3043,1 49179U 21082BB  21321.41667824 -.00014939  00000-0 -12352-3 0  9994,2 49179  69.9981 306.0708 0003730 292.2162 117.7603 15.69759739  3666,6737.721,91.734,362.1,357.0730000000001,0.0
49179.0,STARLINK-3043,PAYLOAD,2021-11-17 22:00:01,15.69747478,0.0003715,70.0002,304.6611,289.6381,64.8412,-5.944900000000001e-06,-9.22e-06,0.0,0 STARLINK-3043,1 49179U 21082BB  21321.91668981 -.00000922  00000-0 -59449-5 0  9991,2 49179  70.0002 304.6611 0003715 289.6381  64.8412 15.69747478  3685,6737.757,91.734,362.125,357.11800000000005,0.0
49179.0,STARLINK-3043,PAYLOAD,2021-11-18 00:00:00,15.6973952,0.0003685,69.9985,304.4312,284.5536,180.8531,6.1758e-05,7.164e-05,0.0,0 STARLINK-3043,1 49179U 21082BB  21322.00001157  .00007164  00000-0  61758-4 0  9996,2 49179  69.9985 304.4312 0003685 284.5536 180.8531 15.69739520 10284,6737.779,91.735,362.127,357.161,0.0
49179.0,STARLINK-3043,PAYLOAD,2021-11-18 14:00:01,15.6977739,0.0003808,69.9978,302.7913,288.3245,232.5372,-0.00034316,-0.00041029,0.0,0 STARLINK-3043,1 49179U 21082BB  21322.58334491 -.00041029  00000-0 -34316-3 0  9998,2 49179  69.9978 302.7913 0003808 288.3245 232.5372 15.69777390  3681,6737.670999999999,91.733,362.102,356.97,0.0
49179.0,STARLINK-3043,PAYLOAD,2021-11-18 22:00:00,15.69767373,0.0003802,69.998,301.8541,282.127,321.8695,0.00022077,0.00026247,0.0,0 STARLINK-3043,1 49179U 21082BB  21322.91667824  .00026247  00000-0  22077-3 0  9998,2 49179  69.9980 301.8541 0003802 282.1270 321.8695 15.69767373  3708,6737.7,91.733,362.126,357.00300000000016,0.0
49179.0,STARLINK-3043,PAYLOAD,2021-11-19 08:00:01,15.69706512,0.0004062,69.9984,300.6825,287.9422,150.0003,0.00031656,0.00037685,0.0,0 STARLINK-3043,1 49179U 21082BB  21323.33334491  .00037685  00000-0  31656-3 0  9997,2 49179  69.9984 300.6825 0004062 287.9422 150.0003 15.69706512 10492,6737.874,91.737,362.476,357.00199999999984,0.0
49179.0,STARLINK-3043,PAYLOAD,2021-11-19 14:00:01,15.6974604,0.0004003,69.9982,299.9798,286.7428,123.512,-0.00028953,-0.00034634,0.0,0 STARLINK-3043,1 49179U 21082BB  21323.58334491 -.00034634  00000-0 -28953-3 0  9993,2 49179  69.9982 299.9798 0004003 286.7428 123.5120 15.69746040  3685,6737.761,91.735,362.323,356.92800000000005,0.0
49179.0,STARLINK-3043,PAYLOAD,2021-11-19 22:00:00,15.69748898,0.0004207,70.0002,299.0394,286.3066,206.8625,-2.3559e-05,-3.025e-05,0.0,0 STARLINK-3043,1 49179U 21082BB  21323.91667824 -.00003025  00000-0 -23559-4 0  9997,2 49179  70.0002 299.0394 0004207 286.3066 206.8625 15.69748898  3682,6737.752,91.734,362.452,356.783,0.0
49179.0,STARLINK-3043,PAYLOAD,2021-11-20 08:00:01,15.69736994,0.0004088,69.9987,297.8715,287.3887,39.8872,0.00041289,0.00049349,0.0,0 STARLINK-3043,1 49179U 21082BB  21324.33334491  .00049349  00000-0  41289-3 0  9991,2 49179  69.9987 297.8715 0004088 287.3887  39.8872 15.69736994 10650,6737.7869999999975,91.735,362.406,356.897,0.0
49179.0,STARLINK-3043,PAYLOAD,2021-11-20 14:00:01,15.697827800000002,0.0004022,69.9983,297.1686,285.1758,14.4435,-0.00031985,-0.0003828,0.0,0 STARLINK-3043,1 49179U 21082BB  21324.58334491 -.00038280  00000-0 -31985-3 0  9994,2 49179  69.9983 297.1686 0004022 285.1758  14.4435 15.69782780  3691,6737.655,91.732,362.23,356.811,0.0
49179.0,STARLINK-3043,PAYLOAD,2021-11-20 22:00:00,15.69799786,0.0003885,69.9986,296.2316,280.9904,101.7756,-0.00059227,-0.00070481,0.0,0 STARLINK-3043,1 49179U 21082BB  21324.91667824 -.00070481  00000-0 -59227-3 0  9998,2 49179  69.9986 296.2316 0003885 280.9904 101.7756 15.69799786 10740,6737.607,91.731,362.089,356.85400000000016,0.0
49179.0,STARLINK-3043,PAYLOAD,2021-11-21 14:00:01,15.69768035,0.0003699,69.9987,294.3574,285.9748,263.0636,-0.00029192,-0.00034945,0.0,0 STARLINK-3043,1 49179U 21082BB  21325.58334491 -.00034945  00000-0 -29192-3 0  9996,2 49179  69.9987 294.3574 0003699 285.9748 263.0636 15.69768035 10843,6737.698,91.733,362.055,357.07,0.0
49179.0,STARLINK-3043,PAYLOAD,2021-11-21 22:00:00,15.69790254,0.0003574,69.9993,293.4205,281.1861,350.9761,-0.0005477,-0.00065203,0.0,0 STARLINK-3043,1 49179U 21082BB  21325.91667824 -.00065203  00000-0 -54770-3 0  9993,2 49179  69.9993 293.4205 0003574 281.1861 350.9761 15.69790254  3684,6737.634,91.732,361.907,357.091,0.0
